#dP2023  7 28 12  0  0.00000000      96 __u+U ITR00 EXT  IAC
## 2272 475200.00000000   900.00000000 60153 0.5000000000000
+  119   C06C07C08C09C10C11C12C13C14C16C19C20C21C22C23C24C25
+        C26C27C28C29C30C32C33C34C35C36C37C38C39C40C41C42C43
+        C44C45C46E02E03E04E05E07E08E09E10E11E12E13E14E15E18
+        E19E21E24E25E26E27E30E31E33E34E36G01G02G03G04G05G06
+        G07G08G09G10G11G12G13G14G15G16G17G18G19G20G21G22G23
+        G24G25G26G27G28G29G30G31G32J02J03J04R01R02R03R04R05
+        R07R08R09R11R12R13R14R15R16R17R18R19R20R21R22R24R25
++        10 10  7 10  8  8  9  8  7  9  8  9  8  9  8  9  9
++         8  9 10  9  9  9  9  8  8  6  9  8 10 10  9  8  9
++         6  8  8  7  8  8  6  7  7  8  5  8  7  6  8  6  7
++         6  6  7  6  6  6  7  6  7  8  7  6  7  6  6  6  6
++         8  7  6  6  7  8  7  6  8  7  7  8  7  6  7  6  6
++         7  6  8  6  8  7  7  7  9  9  8 10  9  7  7  7  8
++         7  9  6  8  8  9  7  7  7  9  8  9  9  6  9  9  7
%c M  cc GPS ccc cccc cccc cccc cccc ccccc ccccc ccccc ccccc
%c cc cc ccc ccc cccc cccc cccc cccc ccccc ccccc ccccc ccccc
%f  0.0000000  0.000000000  0.00000000000  0.000000000000000
%f  0.0000000  0.000000000  0.00000000000  0.000000000000000
%i    0    0    0    0      0      0      0      0         0
%i    0    0    0    0      0      0      0      0         0
/* IAC                                ULTRA-RAPID PREDICTION
/* S/V CLOCKS ARE ALIGNED TO GNSS TIME                      
/* G:C1WC2W R:C1PC2P E:C1XC5X C:C2IC6I J:C1CC2S             
/* PCV:IGS20_2247 OL/AL:FES2004  NONE     YN ORB:CoN CLK:CoN
*  2023 07 29  4  0  0.00000000
PC06 -17668.553362  25611.956859 -28555.557720    726.868662
PC07  -9520.956019  40731.980337  -4148.191400    154.135588
PC08   1439.003852  26634.746361  32693.634344    411.070909
PC09  -7839.690986  25266.460517 -32520.973922    359.295550
PC10  -4374.578740  41604.370694   1684.940367   -128.692147
PC11  25901.126136  -9243.030570   4891.738599    750.796617
PC12  19167.419074   4887.013911  19724.485132    825.940181
PC13   7287.010858  30221.861267  28748.507142    324.312299
PC14  15206.409417  -8116.946350 -21948.263258    135.561836
PC16 -19369.758155  24958.969564 -27807.505061    -12.942054
PC19 -12342.584558  17958.750682  17436.921648   -948.663958
PC20 -15640.748650  -1200.671149  23086.526427    401.868340
PC21   9718.087703  21251.357304 -15224.101849   -941.218148
PC22  -1764.940915  27799.884872   1377.012514   -375.403103
PC23   -830.022573 -18357.817085  21013.005670   -925.254046
PC24  25247.592532   8543.979796   8301.448375    224.545156
PC25  16404.351529  -8015.691983  21104.275467    177.880584
PC26  19558.398111  18213.336478  -8101.457685   -155.449266
PC27 -12205.520250 -11249.995124 -22455.343027    176.474690
PC28   5977.891625 -18733.141718 -19802.896392    131.746937
PC29 -22255.497023  16284.104285   4253.617017    153.579164
PC30 -24244.715330   3093.215395 -13492.334963     -2.777881
PC32  -9850.553910 -21278.574944  15152.894201   -535.599917
PC33  12276.237483 -17985.823235 -17463.991226   -923.963392
PC34  24661.944129  -4173.421332  12344.599899    225.145567
PC35  -5651.849557  19080.259639  19563.073266    578.994952
PC36 -17184.823518   7016.662307 -20805.571952   -304.573660
PC37 -18416.072163 -18936.538026   8985.293109   -799.110589
PC38  -7155.351468  23454.229016  34342.100879     94.633800
PC39 -24499.621300  25270.313272 -23341.543415     -4.047799
PC40 -15888.628194  38148.195649  -7584.342714    -31.018973
PC41   2074.588087 -27758.405237  -2019.435725   -895.666022
PC42  15582.327300   2796.177154 -22940.689803   -595.959353
PC43  22690.184429 -15864.886875  -3442.332612     32.829028
PC44  12478.172153  11035.151098  22369.489753    183.221147
PC45   1454.739337  18454.953068 -20880.343445     -7.508946
PC46 -25084.802806  -7533.185176  -9572.204900    -72.427729
PE02 -17835.619598    363.227209 -23615.531351     52.484199
PE03 -21677.585181  11736.877493  16373.082543    -40.614158
PE04  15964.553538 -24914.185731    867.231451   -177.185826
PE05 -14779.155900  -8441.129467  24221.047859      3.955868
PE07  -1023.817004  23737.734340 -17640.346172    -63.387872
PE08 -16164.016586  24783.794602   -470.049340   -121.781706
PE09   1224.873691 -23771.769432  17607.752713   -101.159897
PE10   4492.942327 -15652.054501 -24732.771128   -552.019649
PE11  -7939.348064 -15897.388751 -23691.556293   2599.862296
PE12  15108.122091 -13139.125654 -21807.770520   -636.616884
PE13   7129.030434  15881.300005  23935.121055    -19.364581
PE14 -21442.334990   6278.407809 -15294.488390    295.677749
PE15 -15481.904724  12945.105942  21651.419696    -40.799858
PE18  21274.703102 -21625.783301   3128.713731    350.408769
PE19  21444.048193  -9257.195643 -18176.687765  -1971.609658
PE21  19038.154306  18453.834696  13162.930077   -543.467348
PE24  -8677.089024 -27633.318955   6055.882269   -235.561377
PE25 -18946.725011 -18754.081272 -12852.404714   -609.020351
PE26  25683.863802   9208.526429  11482.662184    176.801350
PE27   9247.936496  27585.824733  -5453.858842   -110.927342
PE30  -6350.906454  20015.226111 -20868.831805   -373.839648
PE31   5896.750208 -20364.339790  20669.881238     -1.433806
PE33  28893.657372  -2071.120646  -6123.949134     -2.119569
PE34 -28705.131645   2523.554100   6726.515445    -58.606760
PE36 -25252.147122  -9491.324901 -12190.380014    -92.931905
PG01 -14253.544211 -13669.551254 -18268.907134    170.817594
PG02  -7904.614256 -14233.212150 -20514.529955   -571.304807
PG03 -12839.969965 -23093.987016   3112.356622   -212.296884
PG04  -6874.117032 -14899.390067  20871.147477    109.396567
PG05   3089.523112  23527.520698  11638.874711   -136.703238
PG06 -22639.866425   6017.313652  12666.747616    573.051086
PG07 -25371.549938  -6723.978673   5968.389633    111.481170
PG08   2200.149476 -21875.086245 -14688.271310   -134.550124
PG09 -14479.141811  -5609.126215  21473.743194   -100.523206
PG10  14982.472798  -2234.429745 -21671.550155    -47.067892
PG11  -9762.925414  13190.024541  20882.265574   -296.439693
PG12   9122.936019  24987.935287   -374.365303   -406.379555
PG13 -11407.876495  21857.750914  -9775.502462    553.206931
PG14 -16623.267462  -1173.206162 -20693.857391    137.092198
PG15   1430.835263  21908.823847 -15241.662225     62.453463
PG16   3008.415701 -21605.843584  14524.258042   -475.155455
PG17 -20164.893576  10457.960064 -13418.814384    721.844579
PG18  26065.880872   4827.323214   2767.774743   -362.903023
PG19 -20268.560597  15265.204547  -7463.653405    350.255032
PG20  -4169.162798  18112.867515  19075.423940    420.147623
PG21  -5536.947850 -14690.904554 -21006.977336    151.547125
PG22  18666.961928 -18349.196389  -3515.771798    519.452373
PG23  17840.689821  10668.885942 -16624.343038     48.566196
PG24  10195.893904  14848.187928 -20007.438655   -272.836669
PG25  16801.351929  17506.372843  10793.790004    458.961989
PG26  10159.567144 -13148.527946  20540.757925    234.932131
PG27  11954.290363 -22985.902298  -4996.043671    -12.089606
PG28  23581.241485  -6027.616341  10610.675453     80.253994
PG29  13060.249886   7423.068030  21859.995101   -606.629858
PG30 -26400.318063    210.450575  -3887.322952   -500.756904
PG31  15767.776182 -11170.013160  18222.234271   -220.894699
PG32  19371.229611 -13744.688776 -11498.971099   -530.368423
PJ02 -20896.581620  23292.541620 -23615.892117     -1.888904
PJ03 -29995.044466  26513.976715  18154.199883     -0.450843
PJ04 -26683.641592  29776.752660  19248.564416     97.789911
PR01   9262.791699 -21111.395898 -10932.975835     62.364403
PR02   1952.859784 -24336.222751   7317.507795    -22.581602
PR03  -7015.602782 -13423.483471  20550.712621     82.302924
PR04 -11615.196303   4544.263896  22279.634263    196.571391
PR05 -10223.974422  20108.319785  11940.714588    116.491100
PR07   7272.222489  12768.889317 -20826.407457     61.224956
PR08  11680.368507  -4786.383496 -22103.786859    -71.866606
PR09   8971.843437  17909.960996 -15718.400852    133.743703
PR11  19067.715477   6981.858455  15440.983477   -116.943365
PR12   7023.251773  -8536.732265  23019.210400     29.594164
PR13  -7262.255547 -17336.963747  17237.711910    -37.570588
PR14 -19239.843406 -16763.791925   -297.560027     25.021738
PR15 -18615.091644  -6117.573287 -16310.949575     87.468100
PR16  -7135.073144   8215.540200 -23054.596001     17.168170
PR17 -15522.665661  -4505.682708 -19713.289916      3.986957
PR18 -24315.133054   4413.986272  -6399.773706     93.986415
PR19 -21703.569792  10034.364548   8863.766437   -241.507571
PR20  -3696.627250  11382.388420  22533.769171    -97.375378
PR21  16514.789157   3900.636049  19052.985224    -26.240787
PR22  24599.162582  -3985.958080   5450.387333    103.549789
PR24   2480.712291 -11815.167301 -22461.549824    -18.380017
PR25  15373.827439   5466.646790  19616.993388     45.222426
EOF
